     3.02           N: GNSS NAV DATA    E: GALILEO          RINEX VERSION / TYPE
Spider v7.5.1.8670  SMO                 20211106 080544 UTC PGM / RUN BY / DATE
GAL    8.0500D+01  2.0313D-01 -6.1646D-03  0.0000D+00       IONOSPHERIC CORR
GAUT  0.0000000000D+00 0.000000000D+00 518400 2182          TIME SYSTEM CORR
GPGA  4.5693013817D-09 1.776356839D-15 518400 2182          TIME SYSTEM CORR
    18    18  1929     7                                    LEAP SECONDS
                                                            END OF HEADER
E25 2021 11 06 07 10 00-5.525933811441D-04-1.321609488514D-12 0.000000000000D+00
     1.100000000000D+01 2.397187500000D+02 2.733328230420D-09 1.875204441769D+00
     1.103989779949D-05 3.896380076185D-04 7.305294275284D-06 5.440628227234D+03
     5.442000000000D+05-1.676380634308D-08-2.296909493649D+00 4.842877388000D-08
     9.757512118174D-01 1.933125000000D+02-1.113307056679D+00-5.478085327100D-09
     3.107272217306D-10 5.170000000000D+02 2.182000000000D+03 0.000000000000D+00
     3.120000000000D+00 0.000000000000D+00 3.259629011154D-09 3.725290298462D-09
     5.448640000000D+05
E02 2021 11 06 07 10 00 2.584345056675D-04 2.529532139306D-12 0.000000000000D+00
     1.100000000000D+01 2.654687500000D+02 2.615823335717D-09 3.974805694612D-01
     1.232326030731D-05 4.130789311603D-04 7.761642336845D-06 5.440629316330D+03
     5.442000000000D+05 8.195638656616D-08-2.294038714412D+00 1.862645149231D-08
     9.761738473876D-01 1.825000000000D+02-3.972480166887D-01-5.512729627317D-09
     3.510860491218D-10 2.580000000000D+02 2.182000000000D+03 0.000000000000D+00
     3.120000000000D+00 0.000000000000D+00-1.396983861923D-09 0.000000000000D+00
     5.449000000000D+05
E25 2021 11 06 07 10 00-5.525931483135D-04-1.307398633799D-12 0.000000000000D+00
     1.100000000000D+01 2.397187500000D+02 2.733328230420D-09 1.875204441769D+00
     1.103989779949D-05 3.896380076185D-04 7.305294275284D-06 5.440628227234D+03
     5.442000000000D+05-1.676380634308D-08-2.296909493649D+00 4.842877388000D-08
     9.757512118174D-01 1.933125000000D+02-1.113307056679D+00-5.478085327100D-09
     3.107272217306D-10 2.580000000000D+02 2.182000000000D+03 0.000000000000D+00
     3.120000000000D+00 0.000000000000D+00 3.259629011154D-09 0.000000000000D+00
     5.449000000000D+05
E30 2021 11 06 07 10 00-7.570779416710D-06-3.072386789427D-11 0.000000000000D+00
     1.100000000000D+01 2.673437500000D+02 2.691183498271D-09-8.635799829098D-01
     1.242943108082D-05 3.527058288455D-04 8.756294846535D-06 5.440640363693D+03
     5.442000000000D+05 3.725290298462D-08-2.292459617230D+00-3.166496753693D-08
     9.736466505540D-01 1.558437500000D+02 9.981953507287D-02-5.556660028623D-09
     3.457286956721D-10 2.580000000000D+02 2.182000000000D+03 0.000000000000D+00
     3.120000000000D+00 0.000000000000D+00 1.629814505577D-09 0.000000000000D+00
     5.449000000000D+05
E05 2021 11 06 07 10 00-2.360986545682D-04 2.870592652471D-12 0.000000000000D+00
     1.100000000000D+01-1.068750000000D+01 3.921591940070D-09 1.269690594315D+00
    -5.587935447693D-07 1.813136041164D-04 3.494322299957D-06 5.440604436874D+03
     5.442000000000D+05 0.000000000000D+00 1.890636951841D+00 9.313225746155D-09
     9.550032474214D-01 2.633437500000D+02 1.592426533197D+00-5.948462063036D-09
    -1.542921346243D-10 2.580000000000D+02 2.182000000000D+03 0.000000000000D+00
     3.120000000000D+00 0.000000000000D+00 3.492459654808D-09 0.000000000000D+00
     5.449000000000D+05
E15 2021 11 06 07 10 00 7.825554930605D-04-2.245315045002D-12 0.000000000000D+00
     1.100000000000D+01-2.614062500000D+02 2.470817106470D-09-7.857935755251D-01
    -1.213699579239D-05 2.518648980185D-04 9.512528777122D-06 5.440606847763D+03
     5.442000000000D+05 5.960464477539D-08-2.128551671635D-01-2.607703208923D-08
     9.966528338139D-01 1.505937500000D+02-2.080617691998D+00-5.394867575032D-09
    -2.939408161318D-10 2.580000000000D+02 2.182000000000D+03 0.000000000000D+00
     3.120000000000D+00 0.000000000000D+00 6.053596735001D-09 0.000000000000D+00
     5.449000000000D+05
E30 2021 11 06 07 20 00-7.589405868202D-06-3.070965703955D-11 0.000000000000D+00
     1.200000000000D+01 2.661250000000D+02 2.671539878207D-09-7.888257994751D-01
     1.237913966179D-05 3.532589180395D-04 8.573755621910D-06 5.440641492844D+03
     5.448000000000D+05 3.911554813385D-08-2.292462959998D+00-3.166496753693D-08
     9.736468656029D-01 1.602500000000D+02 9.944978691709D-02-5.554874239952D-09
     3.460858544191D-10 5.170000000000D+02 2.182000000000D+03 0.000000000000D+00
     3.120000000000D+00 0.000000000000D+00 1.629814505577D-09 1.629814505577D-09
     5.454550000000D+05
E02 2021 11 06 07 20 00 2.584349131212D-04 2.529532139306D-12 0.000000000000D+00
     1.200000000000D+01 2.629062500000D+02 2.620466288406D-09 4.725588024166D-01
     1.220777630806D-05 4.129025619477D-04 7.802620530128D-06 5.440628648758D+03
     5.448000000000D+05 7.823109626770D-08-2.294042017681D+00 3.166496753693D-08
     9.761741136387D-01 1.816250000000D+02-3.979420893939D-01-5.504872157164D-09
     3.464430131661D-10 5.170000000000D+02 2.182000000000D+03 0.000000000000D+00
     3.120000000000D+00 0.000000000000D+00-1.396983861923D-09-2.095475792885D-09
     5.454640000000D+05
E05 2021 11 06 07 20 00-2.360969083384D-04 2.870592652471D-12 0.000000000000D+00
     1.200000000000D+01-1.034375000000D+01 3.925163305496D-09 1.343726926774D+00
    -5.345791578293D-07 1.812912523746D-04 3.466382622719D-06 5.440604570389D+03
     5.448000000000D+05-1.862645149231D-09 1.890633389635D+00 5.587935447693D-09
     9.550031303880D-01 2.637500000000D+02 1.592776442721D+00-5.952390798112D-09
    -1.532206722610D-10 5.170000000000D+02 2.182000000000D+03 0.000000000000D+00
     3.120000000000D+00 0.000000000000D+00 3.492459654808D-09 3.958120942116D-09
     5.454640000000D+05
E25 2021 11 06 07 20 00-5.525943124667D-04-1.335820343229D-12 0.000000000000D+00
     1.200000000000D+01 2.397187500000D+02 2.729399373180D-09 1.949623371193D+00
     1.103430986404D-05 3.896650159732D-04 7.275491952896D-06 5.440628164291D+03
     5.448000000000D+05-2.235174179077D-08-2.296912748641D+00 3.911554813385D-08
     9.757514297922D-01 1.935625000000D+02-1.113341495234D+00-5.476656696163D-09
     3.042983920398D-10 5.170000000000D+02 2.182000000000D+03 0.000000000000D+00
     3.120000000000D+00 0.000000000000D+00 3.259629011154D-09 3.725290298462D-09
     5.454640000000D+05
E15 2021 11 06 07 20 00 7.825542706996D-04-2.245315045002D-12 0.000000000000D+00
     1.200000000000D+01-2.586250000000D+02 2.461888248817D-09-7.111861754388D-01
    -1.201219856739D-05 2.522148424760D-04 9.540468454361D-06 5.440607551575D+03
     5.448000000000D+05 6.519258022308D-08-2.128584089900D-01-2.421438694000D-08
     9.966526377828D-01 1.499375000000D+02-2.080839591801D+00-5.395939048234D-09
    -2.914407049026D-10 5.170000000000D+02 2.182000000000D+03 0.000000000000D+00
     3.120000000000D+00 0.000000000000D+00 6.053596735001D-09 6.752088665962D-09
     5.454850000000D+05
E02 2021 11 06 07 20 00 2.584360772744D-04 2.529532139306D-12 0.000000000000D+00
     1.200000000000D+01 2.629062500000D+02 2.620466288406D-09 4.725588024166D-01
     1.220777630806D-05 4.129025619477D-04 7.802620530128D-06 5.440628648758D+03
     5.448000000000D+05 7.823109626770D-08-2.294042017681D+00 3.166496753693D-08
     9.761741136387D-01 1.816250000000D+02-3.979420893939D-01-5.504872157164D-09
     3.464430131661D-10 2.580000000000D+02 2.182000000000D+03 0.000000000000D+00
     3.120000000000D+00 0.000000000000D+00-1.396983861923D-09 0.000000000000D+00
     5.455000000000D+05
E25 2021 11 06 07 20 00-5.525940796360D-04-1.321609488514D-12 0.000000000000D+00
     1.200000000000D+01 2.397187500000D+02 2.729399373180D-09 1.949623371193D+00
     1.103430986404D-05 3.896650159732D-04 7.275491952896D-06 5.440628164291D+03
     5.448000000000D+05-2.235174179077D-08-2.296912748641D+00 3.911554813385D-08
     9.757514297922D-01 1.935625000000D+02-1.113341495234D+00-5.476656696163D-09
     3.042983920398D-10 2.580000000000D+02 2.182000000000D+03 0.000000000000D+00
     3.120000000000D+00 0.000000000000D+00 3.259629011154D-09 0.000000000000D+00
     5.455000000000D+05
E30 2021 11 06 07 20 00-7.588998414576D-06-3.070965703955D-11 0.000000000000D+00
     1.200000000000D+01 2.661250000000D+02 2.671539878207D-09-7.888257994751D-01
     1.237913966179D-05 3.532589180395D-04 8.573755621910D-06 5.440641492844D+03
     5.448000000000D+05 3.911554813385D-08-2.292462959998D+00-3.166496753693D-08
     9.736468656029D-01 1.602500000000D+02 9.944978691709D-02-5.554874239952D-09
     3.460858544191D-10 2.580000000000D+02 2.182000000000D+03 0.000000000000D+00
     3.120000000000D+00 0.000000000000D+00 1.629814505577D-09 0.000000000000D+00
     5.455000000000D+05
E05 2021 11 06 07 20 00-2.360968501307D-04 2.870592652471D-12 0.000000000000D+00
     1.200000000000D+01-1.034375000000D+01 3.925163305496D-09 1.343726926774D+00
    -5.345791578293D-07 1.812912523746D-04 3.466382622719D-06 5.440604570389D+03
     5.448000000000D+05-1.862645149231D-09 1.890633389635D+00 5.587935447693D-09
     9.550031303880D-01 2.637500000000D+02 1.592776442721D+00-5.952390798112D-09
    -1.532206722610D-10 2.580000000000D+02 2.182000000000D+03 0.000000000000D+00
     3.120000000000D+00 0.000000000000D+00 3.492459654808D-09 0.000000000000D+00
     5.455000000000D+05
